{
  "norad_id": 65894,
  "name": "STARLINK-34672",
  "history": [
    {
      "epoch": "2026-03-28T20:00:19.126080Z",
      "apogee_km": 475.94918034205875,
      "perigee_km": 474.4317165784214,
      "latitude_deg": 4.543604860516303e-05,
      "longitude_deg": 156.21301695097245,
      "height_km": 475.8567781715618,
      "semi_major_axis_km": 6853.32744846024,
      "eccentricity": 0.00011071,
      "inclination_deg": 53.1581,
      "raan_deg": 282.541,
      "arg_perigee_deg": 72.2084,
      "mean_anomaly_deg": 287.9038,
      "mean_motion_rev_day": 15.30208246
    }
  ]
}