{"fetched_at":"2026-03-29T16:36:15Z","count":15609,"tles":[{"name":"STARLINK-34672","line1":"1 65894U 25224N   26087.83355470 -.00004899  00000+0 -15336-3 0  9997","line2":"2 65894  53.1581 282.5410 0001107  72.2084 287.9038 15.30208246 27806","category":"Starlink"}]}